STARLINK-30773          
1 58161U 23166M   24215.86664824  .00001547  00000+0  64389-4 0  9997
2 58161  53.1617  51.3776 0001191  96.6296 263.4840 15.30181490 43797
STARLINK-30816          
1 58162U 23166N   24215.92880693 -.00000946  00000+0 -19831-4 0  9995
2 58162  53.1619  51.0695 0001374  91.0040 269.1118 15.30195499 43803
STARLINK-30763          
1 58163U 23166P   24215.90943043  .00371402  00000+0  12211-1 0  9991
2 58163  53.1619  47.5758 0000974  86.4506 273.6606 15.29462456 43848
STARLINK-30815          
1 58164U 23166Q   24216.25001157 -.00084308  00000+0 -28621-2 0  9993
2 58164  53.1607  49.6866 0000490   9.5483 268.6336 15.30252053 43860
STARLINK-30814          
1 58165U 23166R   24215.84342813  .00001687  00000+0  69061-4 0  9997
2 58165  53.1603  51.2530 0001204 120.5086 239.6034 15.30197879 43790
STARLINK-30789          
1 58166U 23166S   24216.25001157 -.00072025  00000+0 -24409-2 0  9998
2 58166  53.1603  49.6526 0000582  69.5335 226.1354 15.30231118 43841
STARLINK-30811          
1 58167U 23166T   24215.84976283  .00000617  00000+0  32942-4 0  9993
2 58167  53.1608  51.2940 0000693 104.1801 255.9277 15.30195099 43642
STARLINK-30812          
1 58168U 23166U   24215.84660318  .00002198  00000+0  86343-4 0  9993
2 58168  53.1612  51.2737 0000820 129.4411 230.6662 15.30184973 43648
STARLINK-30771          
1 58169U 23166V   24215.91668981  .00020972  00000+0  71868-3 0  9991
2 58169  53.1599  51.0983 0001516  89.4758 221.3575 15.30178447  5766
STARLINK-30764          
1 58170U 23166W   24216.18376377  .00133373  00000+0  45220-2 0  9990
2 58170  53.1608  49.8234 0001278  93.2691 266.8456 15.29570095 43843
STARLINK-30752          
1 58171U 23166X   24215.91929501  .00001448  00000+0  60990-4 0  9994
2 58171  53.1583  51.0055 0000735 119.9889 240.1184 15.30196386 43802
STARLINK-30753          
1 58175U 23167A   24215.91399778  .00000736  00000+0  69570-4 0  9998
2 58175  43.0033  77.7301 0000831 250.9043 109.1709 15.02533628 43099
STARLINK-30824          
1 58176U 23167B   24215.91289213 -.00000362  00000+0 -11753-4 0  9998
2 58176  43.0017  77.7203 0000979 257.0425 103.0308 15.02525117 43090
STARLINK-30791          
1 58177U 23167C   24215.99602129 -.00001284  00000+0 -79999-4 0  9992
2 58177  43.0028  77.4682 0000999 281.7312  78.3418 15.02524880 43106
STARLINK-30810          
1 58178U 23167D   24215.90634554 -.00000077  00000+0  93657-5 0  9997
2 58178  43.0036  78.5206 0001520 283.3118  76.7555 15.02529201 43132
STARLINK-30819          
1 58179U 23167E   24215.90301727  .00000004  00000+0  15351-4 0  9994
2 58179  43.0030  78.4945 0001086 274.9243  85.1475 15.02528462 43131
STARLINK-30806          
1 58180U 23167F   24215.89968474  .00000077  00000+0  20769-4 0  9991
2 58180  43.0038  78.4690 0001396 262.5216  97.5468 15.02529813 43135
STARLINK-30821          
1 58181U 23167G   24215.99268182 -.00001835  00000+0 -12078-3 0  9990
2 58181  43.0052  77.4422 0001499 285.5186  74.5491 15.02530493 43103
STARLINK-30778          
1 58182U 23167H   24215.92287679  .00003154  00000+0  24843-3 0  9993
2 58182  43.0046  77.7815 0001612 280.1418  79.9242 15.02538275 43099
STARLINK-30809          
1 58183U 23167J   24215.89634919  .00001799  00000+0  14822-3 0  9992
2 58183  43.0022  78.4432 0001332 271.4382  88.6308 15.02536578 43138
STARLINK-30801          
1 58184U 23167K   24215.89302670  .00000012  00000+0  15982-4 0  9995
2 58184  43.0017  78.4143 0001406 265.6249  94.4432 15.02525637 43138
STARLINK-30793          
1 58185U 23167L   24215.91954472 -.00000612  00000+0 -30235-4 0  9998
2 58185  43.0035  77.7485 0002090 265.7529  94.3075 15.02529033 43093
STARLINK-30755          
1 58186U 23167M   24215.88414080  .00003867  00000+0  30116-3 0  9991
2 58186  43.0083  78.3501 0001885 268.7848  91.2779 15.02536352 43135
STARLINK-30760          
1 58187U 23167N   24215.91621703  .00000840  00000+0  77259-4 0  9996
2 58187  43.0038  77.7280 0000680 259.5419 100.5347 15.02527297 43141
STARLINK-30826          
1 58188U 23167P   24215.88304186 -.00000378  00000+0 -12930-4 0  9999
2 58188  43.0028  78.3396 0000876 266.5719  93.5023 15.02525395 43132
STARLINK-30796          
1 58189U 23167Q   24215.88636148  .00000784  00000+0  73111-4 0  9993
2 58189  43.0031  78.3654 0001073 248.1537 111.9191 15.02533456 43136
STARLINK-30820          
1 58190U 23167R   24215.88969862  .00000297  00000+0  37047-4 0  9994
2 58190  43.0039  78.3865 0000909 250.5603 109.5141 15.02524466 43137
STARLINK-30785          
1 58191U 23167S   24215.80990100  .00000907  00000+0  82257-4 0  9997
2 58191  43.0042  78.6542 0001105 278.1440  81.9277 15.02525752 43122
STARLINK-30807          
1 58192U 23167T   24215.94618882 -.00001092  00000+0 -65773-4 0  9999
2 58192  43.0038  77.9528 0000996 267.2244  92.8484 15.02527449 43140
STARLINK-30822          
1 58193U 23167U   24215.67361697  .00000093  00000+0  21980-4 0  9999
2 58193  43.0022  79.3500 0001082 257.6314 102.4408 15.02521223 43102
STARLINK-30830          
1 58194U 23167V   24215.66916865 -.00000465  00000+0 -19366-4 0  9992
2 58194  43.0007  79.2952 0001286 276.6001  83.4695 15.02533199 43107
STARLINK-30827          
1 58195U 23167W   24215.99934648 -.00000520  00000+0 -23446-4 0  9994
2 58195  43.0043  77.4936 0001479 278.6095  81.4580 15.02523589 43045
STARLINK-30798          
1 58196U 23167X   24215.97614838  .00000771  00000+0  72132-4 0  9991
2 58196  43.0045  78.1760 0001254 264.7819  95.2880 15.02530309 43091
STARLINK-30762          
1 58197U 23167Y   24216.00267131  .00000081  00000+0  21096-4 0  9994
2 58197  43.0048  77.5156 0001321 268.4956  91.5735 15.02530994 43105
STARLINK-30800          
1 58206U 23170A   24216.12758291  .00000747  00000+0  70389-4 0  9992
2 58206  43.0038 127.0886 0001233 259.2740 100.7963 15.02529631 42513
STARLINK-30845          
1 58207U 23170B   24215.82504794  .00000975  00000+0  87239-4 0  9991
2 58207  43.0003 128.2735 0000955 238.8536 121.2212 15.02524618 42456
STARLINK-30841          
1 58208U 23170C   24216.13757330  .00001616  00000+0  13473-3 0  9994
2 58208  43.0035 127.1465 0001335 275.4161  84.6529 15.02521551 42393
STARLINK-30839          
1 58209U 23170D   24216.18407238  .00002102  00000+0  17065-3 0  9991
2 58209  43.0032 126.6495 0001183 295.0724  64.9996 15.02536762 42526
STARLINK-30846          
1 58210U 23170E   24216.12093490 -.00001834  00000+0 -12073-3 0  9995
2 58210  43.0020 127.0385 0000911 272.1729  87.9009 15.02527794 42397
STARLINK-30838          
1 58211U 23170F   24215.77854394  .00000223  00000+0  31569-4 0  9995
2 58211  43.0033 128.7686 0001328 258.8347 101.2346 15.02532790 42446
STARLINK-30837          
1 58212U 23170G   24216.19073283  .00001109  00000+0  97160-4 0  9996
2 58212  43.0037 126.6829 0001192 277.4834  82.5873 15.02528871 42535
STARLINK-30813          
1 58213U 23170H   24215.77520704  .00001689  00000+0  14010-3 0  9990
2 58213  43.0034 128.7441 0001416 264.1859  95.8822 15.02534931 42440
STARLINK-30805          
1 58214U 23170J   24216.17075071  .00002155  00000+0  17462-3 0  9991
2 58214  43.0050 126.5544 0001425 276.7185  83.3495 15.02528207 42515
STARLINK-30851          
1 58215U 23170K   24216.03447497  .00000413  00000+0  45674-4 0  9994
2 58215  43.0037 127.2447 0001012 281.1774  78.8955 15.02523677 42388
STARLINK-30786          
1 58216U 23170L   24215.92886634  .00032959  00000+0  90106-3 0  9991
2 58216  43.0014  57.1638 0005874 290.1196  69.9027 15.36768953 43292
STARLINK-30818          
1 58217U 23170M   24216.16076974  .00000362  00000+0  41845-4 0  9997
2 58217  43.0031 126.4765 0001242 263.6852  96.3849 15.02524901 42529
STARLINK-30794          
1 58218U 23170N   24216.11426117  .00003140  00000+0  24743-3 0  9995
2 58218  43.0026 126.9682 0001323 266.7465  93.3226 15.02538072 42510
STARLINK-30835          
1 58219U 23170P   24215.75524160  .00003816  00000+0  29748-3 0  9992
2 58219  43.0021 128.5907 0001184 246.6273 113.4444 15.02525700 42445
STARLINK-30792          
1 58220U 23170Q   24215.75191180  .00000022  00000+0  16729-4 0  9998
2 58220  43.0036 128.5672 0000993 275.8360  84.2369 15.02527651 42448
STARLINK-30836          
1 58221U 23170R   24215.81506869 -.00001404  00000+0 -88932-4 0  9992
2 58221  43.0029 128.1788 0001159 277.7555  82.3156 15.02516917 42454
STARLINK-30855          
1 58222U 23170S   24215.80185253 -.00001266  00000+0 -78711-4 0  9992
2 58222  43.0010 128.9239 0001123 265.7200  94.3514 15.02519117 42444
STARLINK-30840          
1 58223U 23170T   24216.06444298 -.00000994  00000+0 -58562-4 0  9998
2 58223  43.0048 127.4576 0001084 267.9992  92.0726 15.02525204 42390
STARLINK-30875          
1 58224U 23170U   24216.03113572  .00001248  00000+0  10744-3 0  9994
2 58224  43.0040 127.2083 0001436 262.6378  97.4301 15.02527293 42449
STARLINK-30872          
1 58225U 23170V   24215.91668981  .00039003  00000+0  14939-2 0  9999
2 58225  43.0005 104.5766 0001192 247.4982  15.3818 15.25889521  5821
STARLINK-30865          
1 58226U 23170W   24215.77698093 -.00000689  00000+0 -35974-4 0  9995
2 58226  43.0040 117.7053 0000742 278.1005  81.9753 15.02529492 42576
STARLINK-30874          
1 58227U 23170X   24215.47944985  .00000259  00000+0  34270-4 0  9996
2 58227  43.0034 130.8072 0000987 266.5491  93.5238 15.02535001 42398
STARLINK-30871          
1 58228U 23170Y   24215.80850871  .00000832  00000+0  76661-4 0  9991
2 58228  43.0036 128.9757 0001138 269.7479  90.3233 15.02535504 42443
STARLINK-30861          
1 58230U 23171A   24216.07244703  .00000771  00000+0  72181-4 0  9991
2 58230  43.0034 217.2705 0001138 271.3372  88.7340 15.02531896 41955
STARLINK-30867          
1 58231U 23171B   24216.00931634  .00016425  00000+0  12301-2 0  9990
2 58231  43.0038 217.6559 0001317 241.7751 118.2959 15.02474157 41942
